stk.v.4.3 

BEGIN Ephemeris 
 
NumberOfEphemerisPoints		146 
ScenarioEpoch	    3 Sep 2020 22: 4:51.716046632 
InterpolationMethod		Lagrange 
InterpolationOrder		5 
CentralBody				Earth 
CoordinateSystem			TEME 
CoordinateSystemEpoch	  3 Sep 2020 22: 4:51.716046632 
DistanceUnit			Kilometers 
 
EphemerisTimePosVel 
 
       0.00000000   -7115.98809767    -749.06566796       0.03919622  0.058491403 -0.464648723  7.450673504
 END Ephemeris 
